{"type": "FeatureCollection", "features": [ {"type": "Feature", "properties": {"norad_id": 31880, "name": "FENGYUN 1C DEB", "group": "fengyun-1c-debris", "lat": 70.2464999662745, "lon": 120.16102250476301, "alt_km": 904.1435492783457, "timestamp": "2025-12-12T20:43:07.319672+00:00", "meta": {"OBJECT_NAME": "FENGYUN 1C DEB", "OBJECT_ID": "1999-025CKF", "EPOCH": "2025-12-11T16:42:46.632384", "MEAN_MOTION": 13.89397693, "ECCENTRICITY": 0.01281078, "INCLINATION": 100.0286, "RA_OF_ASC_NODE": 148.4273, "ARG_OF_PERICENTER": 154.5547, "MEAN_ANOMALY": 206.199, "EPHEMERIS_TYPE": 0, "CLASSIFICATION_TYPE": "U", "NORAD_CAT_ID": 31880, "ELEMENT_SET_NO": 999, "REV_AT_EPOCH": 62965, "BSTAR": 0.00070027147, "MEAN_MOTION_DOT": 8.62e-06, "MEAN_MOTION_DDOT": 0}, "tle": {"line1": "1 31880U 99025CKF 25345.69637306  .00000862  00000+0  70027-3 0  9998", "line2": "2 31880 100.0286 148.4273 0128107 154.5547 206.1990 13.89397693629651"}}, "geometry": {"type": "Point", "coordinates": [120.16102250476301, 70.2464999662745]}}, {"type": "Feature", "properties": {"norad_id": 31882, "name": "FENGYUN 1C DEB", "group": "fengyun-1c-debris", "lat": 22.155773363730802, "lon": -94.2739040894989, "alt_km": 872.44631974, "timestamp": "2025-12-12T20:43:07.319682+00:00", "meta": {"OBJECT_NAME": "FENGYUN 1C DEB", "OBJECT_ID": "1999-025CKH", "EPOCH": "2025-12-04T12:04:11.131104", "MEAN_MOTION": 14.12940251, "ECCENTRICITY": 0.0035445, "INCLINATION": 98.9162, "RA_OF_ASC_NODE": 261.0675, "ARG_OF_PERICENTER": 248.9848, "MEAN_ANOMALY": 110.7531, "EPHEMERIS_TYPE": 0, "CLASSIFICATION_TYPE": "U", "NORAD_CAT_ID": 31882, "ELEMENT_SET_NO": 999, "REV_AT_EPOCH": 58520, "BSTAR": 0.0011941, "MEAN_MOTION_DOT": 2.193e-05, "MEAN_MOTION_DDOT": 0}, "tle": {"line1": "1 31882U 99025CKH 25338.50290661  .00002193  00000+0  11941-2 0  9999", "line2": "2 31882  98.9162 261.0675 0035445 248.9848 110.7531 14.12940251585207"}}, "geometry": {"type": "Point", "coordinates": [-94.2739040894989, 22.155773363730802]}}, {"type": "Feature", "properties": {"norad_id": 31883, "name": "FENGYUN 1C DEB", "group": "fengyun-1c-debris", "lat": 69.22594859250674, "lon": 108.28083503549244, "alt_km": 593.5569465083772, "timestamp": "2025-12-12T20:43:07.319695+00:00", "meta": {"OBJECT_NAME": "FENGYUN 1C DEB", "OBJECT_ID": "1999-025CKJ", "EPOCH": "2025-12-12T05:30:36.176832", "MEAN_MOTION": 14.6772293, "ECCENTRICITY": 0.01250907, "INCLINATION": 99.0276, "RA_OF_ASC_NODE": 262.8049, "ARG_OF_PERICENTER": 70.7327, "MEAN_ANOMALY": 290.7357, "EPHEMERIS_TYPE": 0, "CLASSIFICATION_TYPE": "U", "NORAD_CAT_ID": 31883, "ELEMENT_SET_NO": 999, "REV_AT_EPOCH": 97971, "BSTAR": 0.00096098955, "MEAN_MOTION_DOT": 6.099e-05, "MEAN_MOTION_DDOT": 0}, "tle": {"line1": "1 31883U 99025CKJ 25346.22958538  .00006099  00000+0  96099-3 0  9999", "line2": "2 31883  99.0276 262.8049 0125090  70.7327 290.7357 14.67722930979719"}}, "geometry": {"type": "Point", "coordinates": [108.28083503549244, 69.22594859250674]}}, {"type": "Feature", "properties": {"norad_id": 31887, "name": "FENGYUN 1C DEB", "group": "fengyun-1c-debris", "lat": -62.396994463526035, "lon": -160.26861523493812, "alt_km": 716.0901312312826, "timestamp": "2025-12-12T20:43:07.319706+00:00", "meta": {"OBJECT_NAME": "FENGYUN 1C DEB", "OBJECT_ID": "1999-025CKN", "EPOCH": "2025-12-11T13:57:04.668192", "MEAN_MOTION": 14.57773816, "ECCENTRICITY": 0.00241037, "INCLINATION": 99.534, "RA_OF_ASC_NODE": 37.0141, "ARG_OF_PERICENTER": 8.2846, "MEAN_ANOMALY": 351.8742, "EPHEMERIS_TYPE": 0, "CLASSIFICATION_TYPE": "U", "NORAD_CAT_ID": 31887, "ELEMENT_SET_NO": 999, "REV_AT_EPOCH": 96591, "BSTAR": 0.0013584899, "MEAN_MOTION_DOT": 6.181e-05, "MEAN_MOTION_DDOT": 0}, "tle": {"line1": "1 31887U 99025CKN 25345.58130403  .00006181  00000+0  13585-2 0  9994", "line2": "2 31887  99.5340  37.0141 0024103   8.2846 351.8742 14.57773816965912"}}, "geometry": {"type": "Point", "coordinates": [-160.26861523493812, -62.396994463526035]}}, {"type": "Feature", "properties": {"norad_id": 31888, "name": "FENGYUN 1C DEB", "group": "fengyun-1c-debris", "lat": -79.9013000581655, "lon": 28.391550315511743, "alt_km": 777.6647817937865, "timestamp": "2025-12-12T20:43:07.319716+00:00", "meta": {"OBJECT_NAME": "FENGYUN 1C DEB", "OBJECT_ID": "1999-025CKP", "EPOCH": "2025-12-09T12:46:19.286688", "MEAN_MOTION": 14.33869368, "ECCENTRICITY": 0.0017415, "INCLINATION": 99.155, "RA_OF_ASC_NODE": 269.7513, "ARG_OF_PERICENTER": 227.0258, "MEAN_ANOMALY": 132.9465, "EPHEMERIS_TYPE": 0, "CLASSIFICATION_TYPE": "U", "NORAD_CAT_ID": 31888, "ELEMENT_SET_NO": 999, "REV_AT_EPOCH": 95591, "BSTAR": 0.0028784, "MEAN_MOTION_DOT": 7.988e-05, "MEAN_MOTION_DDOT": 0}, "tle": {"line1": "1 31888U 99025CKP 25343.53216767  .00007988  00000+0  28784-2 0  9999", "line2": "2 31888  99.1550 269.7513 0017415 227.0258 132.9465 14.33869368955916"}}, "geometry": {"type": "Point", "coordinates": [28.391550315511743, -79.9013000581655]}}, {"type": "Feature", "properties": {"norad_id": 31890, "name": "FENGYUN 1C DEB", "group": "fengyun-1c-debris", "lat": -61.311949729837764, "lon": 14.66461980490967, "alt_km": 836.5138818564747, "timestamp": "2025-12-12T20:43:07.319726+00:00", "meta": {"OBJECT_NAME": "FENGYUN 1C DEB", "OBJECT_ID": "1999-025CKR", "EPOCH": "2025-12-10T07:42:33.875424", "MEAN_MOTION": 14.10131254, "ECCENTRICITY": 0.0071571, "INCLINATION": 98.7184, "RA_OF_ASC_NODE": 355.9158, "ARG_OF_PERICENTER": 249.1097, "MEAN_ANOMALY": 110.2401, "EPHEMERIS_TYPE": 0, "CLASSIFICATION_TYPE": "U", "NORAD_CAT_ID": 31890, "ELEMENT_SET_NO": 999, "REV_AT_EPOCH": 64118, "BSTAR": 0.00021407, "MEAN_MOTION_DOT": 3.44e-06, "MEAN_MOTION_DDOT": 0}, "tle": {"line1": "1 31890U 99025CKR 25344.32122541  .00000344  00000+0  21407-3 0  9991", "line2": "2 31890  98.7184 355.9158 0071571 249.1097 110.2401 14.10131254641180"}}, "geometry": {"type": "Point", "coordinates": [14.66461980490967, -61.311949729837764]}}, {"type": "Feature", "properties": {"norad_id": 31891, "name": "FENGYUN 1C DEB", "group": "fengyun-1c-debris", "lat": -6.020604709475451, "lon": -179.0555989558411, "alt_km": 850.7376872476043, "timestamp": "2025-12-12T20:43:07.319736+00:00", "meta": {"OBJECT_NAME": "FENGYUN 1C DEB", "OBJECT_ID": "1999-025CKS", "EPOCH": "2025-12-12T00:28:37.093728", "MEAN_MOTION": 13.66202619, "ECCENTRICITY": 0.0224928, "INCLINATION": 99.4029, "RA_OF_ASC_NODE": 1.1266, "ARG_OF_PERICENTER": 185.1686, "MEAN_ANOMALY": 174.7134, "EPHEMERIS_TYPE": 0, "CLASSIFICATION_TYPE": "U", "NORAD_CAT_ID": 31891, "ELEMENT_SET_NO": 999, "REV_AT_EPOCH": 92400, "BSTAR": 0.00071487, "MEAN_MOTION_DOT": 6.59e-06, "MEAN_MOTION_DDOT": 0}, "tle": {"line1": "1 31891U 99025CKS 25346.01987377  .00000659  00000+0  71487-3 0  9998", "line2": "2 31891  99.4029   1.1266 0224928 185.1686 174.7134 13.66202619924003"}}, "geometry": {"type": "Point", "coordinates": [-179.0555989558411, -6.020604709475451]}}, {"type": "Feature", "properties": {"norad_id": 31892, "name": "FENGYUN 1C DEB", "group": "fengyun-1c-debris", "lat": 19.488464665764617, "lon": -20.043060533694106, "alt_km": 836.5538135766155, "timestamp": "2025-12-12T20:43:07.319746+00:00", "meta": {"OBJECT_NAME": "FENGYUN 1C DEB", "OBJECT_ID": "1999-025CKT", "EPOCH": "2025-12-06T17:19:53.766912", "MEAN_MOTION": 14.41156255, "ECCENTRICITY": 0.01986119, "INCLINATION": 99.2881, "RA_OF_ASC_NODE": 149.9643, "ARG_OF_PERICENTER": 304.4066, "MEAN_ANOMALY": 53.8482, "EPHEMERIS_TYPE": 0, "CLASSIFICATION_TYPE": "U", "NORAD_CAT_ID": 31892, "ELEMENT_SET_NO": 999, "REV_AT_EPOCH": 64819, "BSTAR": 0.001005312, "MEAN_MOTION_DOT": 4.04e-05, "MEAN_MOTION_DDOT": 0}, "tle": {"line1": "1 31892U 99025CKT 25340.72215008  .00004040  00000+0  10053-2 0  9995", "line2": "2 31892  99.2881 149.9643 0198611 304.4066  53.8482 14.41156255648199"}}, "geometry": {"type": "Point", "coordinates": [-20.043060533694106, 19.488464665764617]}}, {"type": "Feature", "properties": {"norad_id": 31893, "name": "FENGYUN 1C DEB", "group": "fengyun-1c-debris", "lat": -0.42383822157025064, "lon": 125.08450044087184, "alt_km": 785.9986314345297, "timestamp": "2025-12-12T20:43:07.319757+00:00", "meta": {"OBJECT_NAME": "FENGYUN 1C DEB", "OBJECT_ID": "1999-025CKU", "EPOCH": "2025-12-10T03:58:03.016416", "MEAN_MOTION": 14.63735073, "ECCENTRICITY": 0.0175148, "INCLINATION": 99.0702, "RA_OF_ASC_NODE": 302.1839, "ARG_OF_PERICENTER": 334.6448, "MEAN_ANOMALY": 38.1514, "EPHEMERIS_TYPE": 0, "CLASSIFICATION_TYPE": "U", "NORAD_CAT_ID": 31893, "ELEMENT_SET_NO": 999, "REV_AT_EPOCH": 98367, "BSTAR": 0.00066013883, "MEAN_MOTION_DOT": 4.232e-05, "MEAN_MOTION_DDOT": 0}, "tle": {"line1": "1 31893U 99025CKU 25344.16531269  .00004232  00000+0  66014-3 0  9990", "line2": "2 31893  99.0702 302.1839 0175148 334.6448  38.1514 14.63735073983671"}}, "geometry": {"type": "Point", "coordinates": [125.08450044087184, -0.42383822157025064]}}, {"type": "Feature", "properties": {"norad_id": 31895, "name": "FENGYUN 1C DEB", "group": "fengyun-1c-debris", "lat": 15.718344749834362, "lon": 13.176474979949903, "alt_km": 1118.7232356252116, "timestamp": "2025-12-12T20:43:07.319767+00:00", "meta": {"OBJECT_NAME": "FENGYUN 1C DEB", "OBJECT_ID": "1999-025CKW", "EPOCH": "2025-12-04T08:23:00.168864", "MEAN_MOTION": 13.75460226, "ECCENTRICITY": 0.02263483, "INCLINATION": 99.1028, "RA_OF_ASC_NODE": 7.6273, "ARG_OF_PERICENTER": 251.6022, "MEAN_ANOMALY": 106.0398, "EPHEMERIS_TYPE": 0, "CLASSIFICATION_TYPE": "U", "NORAD_CAT_ID": 31895, "ELEMENT_SET_NO": 999, "REV_AT_EPOCH": 61781, "BSTAR": 0.0039968239, "MEAN_MOTION_DOT": 4.593e-05, "MEAN_MOTION_DDOT": 0}, "tle": {"line1": "1 31895U 99025CKW 25338.34930751  .00004593  00000+0  39968-2 0  9991", "line2": "2 31895  99.1028   7.6273 0226348 251.6022 106.0398 13.75460226617811"}}, "geometry": {"type": "Point", "coordinates": [13.176474979949903, 15.718344749834362]}}]}